NORAD_CAT_ID,OBJECT_NAME,OBJECT_TYPE,EPOCH,MEAN_MOTION,ECCENTRICITY,INCLINATION,RA_OF_ASC_NODE,ARG_OF_PERICENTER,MEAN_ANOMALY,BSTAR,MEAN_MOTION_DOT,MEAN_MOTION_DDOT,TLE_LINE0,TLE_LINE1,TLE_LINE2,SEMIMAJOR_AXIS,PERIOD,APOGEE,PERIGEE,DECAYED
53740.0,STARLINK-4607,PAYLOAD,2023-10-21 11:38:48,15.08834974,0.0001193,53.216,210.515,96.5587,263.5541,0.0001761,2.516e-05,0.0,0 STARLINK-4607,1 53740U 22107AS  23294.48527951  .00002516  00000-0  17610-3 0  9994,2 53740  53.2160 210.5150 0001193  96.5587 263.5541 15.08834974 62447,6917.896,95.438,540.586,538.935,0.0
53740.0,STARLINK-4607,PAYLOAD,2023-10-21 22:46:29,15.08851608,0.0001519,53.2166,208.4338,103.1135,257.0027,0.00059962,9.271e-05,0.0,0 STARLINK-4607,1 53740U 22107AS  23294.94895232  .00009271  00000-0  59962-3 0  9996,2 53740  53.2166 208.4338 0001519 103.1135 257.0027 15.08851608 63297,6917.845,95.437,540.761,538.659,0.0
53740.0,STARLINK-4607,PAYLOAD,2023-10-22 03:32:38,15.08878305,0.0001459,53.2152,207.539,92.0048,268.1111,0.0018499,0.00029307,0.0,0 STARLINK-4607,1 53740U 22107AS  23295.14767068  .00029307  00000-0  18499-2 0  9995,2 53740  53.2152 207.5390 0001459  92.0048 268.1111 15.08878305 62549,6917.763,95.435,540.638,538.619,0.0
53740.0,STARLINK-4607,PAYLOAD,2023-10-22 11:29:35,15.08841574,0.0002648,53.216,206.0534,73.9293,286.199,-0.00010935,-2.029e-05,0.0,0 STARLINK-4607,1 53740U 22107AS  23295.47887899 -.00002029  00000-0 -10935-3 0  9998,2 53740  53.2160 206.0534 0002648  73.9293 286.1990 15.08841574 62591,6917.876,95.437,541.572,537.909,0.0
53740.0,STARLINK-4607,PAYLOAD,2023-10-22 22:37:17,15.08820869,0.0001601,53.2152,203.9709,77.1959,282.9212,0.0012168,0.0001912,0.0,0 STARLINK-4607,1 53740U 22107AS  23295.94256455  .00019120  00000-0  12168-2 0  9995,2 53740  53.2152 203.9709 0001601  77.1959 282.9212 15.08820869 63445,6917.939,95.439,540.911,538.696,0.0
53740.0,STARLINK-4607,PAYLOAD,2023-10-23 01:48:03,15.08821138,0.0001447,53.2152,203.3757,74.726,285.3892,0.0015687,0.00024753,0.0,0 STARLINK-4607,1 53740U 22107AS  23296.07504604  .00024753  00000-0  15687-2 0  9999,2 53740  53.2152 203.3757 0001447  74.7260 285.3892 15.08821138 62684,6917.938,95.439,540.804,538.802,0.0
53740.0,STARLINK-4607,PAYLOAD,2023-10-23 22:28:04,15.08857987,0.0001498,53.2158,199.5101,74.397,285.7187,0.0015478,0.00024443,0.0,0 STARLINK-4607,1 53740U 22107AS  23296.93616754  .00024443  00000-0  15478-2 0  9998,2 53740  53.2158 199.5101 0001498  74.3970 285.7187 15.08857987 63592,6917.825,95.436,540.727,538.654,0.0
53740.0,STARLINK-4607,PAYLOAD,2023-10-24 03:14:14,15.08870723,0.0001509,53.2161,198.6185,73.3534,286.7624,0.0018313,0.00029002,0.0,0 STARLINK-4607,1 53740U 22107AS  23297.13488441  .00029002  00000-0  18313-2 0  9998,2 53740  53.2161 198.6185 0001509  73.3534 286.7624 15.08870723 62843,6917.786,95.436,540.695,538.608,0.0
53740.0,STARLINK-4607,PAYLOAD,2023-10-24 11:11:09,15.08861468,0.0001692,53.2173,197.1314,77.7838,282.3344,0.00085797,0.00013401,0.0,0 STARLINK-4607,1 53740U 22107AS  23297.46608353  .00013401  00000-0  85797-3 0  9997,2 53740  53.2173 197.1314 0001692  77.7838 282.3344 15.08861468 62894,6917.815,95.436,540.85,538.509,0.0
53740.0,STARLINK-4607,PAYLOAD,2023-10-25 20:34:14,15.08847585,0.0001695,53.2165,190.8833,89.4039,270.7147,0.00030486,4.568e-05,0.0,0 STARLINK-4607,1 53740U 22107AS  23298.85711788  .00004568  00000-0  30486-3 0  9997,2 53740  53.2165 190.8833 0001695  89.4039 270.7147 15.08847585 63108,6917.857,95.437,540.895,538.55,0.0
53740.0,STARLINK-4607,PAYLOAD,2023-10-26 02:55:47,15.08845715,0.0001646,53.2175,189.694,87.4656,272.6524,0.00014807,2.07e-05,0.0,0 STARLINK-4607,1 53740U 22107AS  23299.12207749  .00002070  00000-0  14807-3 0  9990,2 53740  53.2175 189.6940 0001646  87.4656 272.6524 15.08845715 63926,6917.863,95.437,540.867,538.589,0.0
53740.0,STARLINK-4607,PAYLOAD,2023-10-26 20:25:01,15.08844034,0.0001534,53.2167,186.424,90.4611,269.6557,0.00011244,1.502e-05,0.0,0 STARLINK-4607,1 53740U 22107AS  23299.85071704  .00001502  00000-0  11244-3 0  9991,2 53740  53.2167 186.4240 0001534  90.4611 269.6557 15.08844034 64034,6917.868,95.437,540.794,538.672,0.0
53740.0,STARLINK-4607,PAYLOAD,2023-10-26 23:35:47,15.08850662,0.0001435,53.2165,185.8309,86.7639,273.3517,0.0002153,3.141e-05,0.0,0 STARLINK-4607,1 53740U 22107AS  23299.98319328  .00003141  00000-0  21530-3 0  9992,2 53740  53.2165 185.8309 0001435  86.7639 273.3517 15.08850662 63276,6917.848,95.437,540.706,538.72,0.0
53740.0,STARLINK-4607,PAYLOAD,2023-10-27 09:08:06,15.08847924,0.0001213,53.2158,184.0447,78.3995,281.7133,0.00018998,2.738e-05,0.0,0 STARLINK-4607,1 53740U 22107AS  23300.38063389  .00002738  00000-0  18998-3 0  9997,2 53740  53.2158 184.0447 0001213  78.3995 281.7133 15.08847924 64116,6917.856,95.437,540.56,538.882,0.0
53740.0,STARLINK-4607,PAYLOAD,2023-10-27 17:05:02,15.08838252,0.000172,53.217,182.5644,103.9992,256.1192,-5.9747e-06,-3.83e-06,0.0,0 STARLINK-4607,1 53740U 22107AS  23300.71184025 -.00000383  00000-0 -59747-5 0  9990,2 53740  53.2170 182.5644 0001720 103.9992 256.1192 15.08838252 63380,6917.886,95.438,540.941,538.561,0.0
53740.0,STARLINK-4607,PAYLOAD,2023-10-27 21:51:12,15.08838882,0.0001708,53.2174,181.6699,103.0059,257.1124,3.4754e-05,2.65e-06,0.0,0 STARLINK-4607,1 53740U 22107AS  23300.91055889  .00000265  00000-0  34754-4 0  9994,2 53740  53.2174 181.6699 0001708 103.0059 257.1124 15.08838882 64190,6917.884,95.438,540.93,538.567,0.0
53740.0,STARLINK-4607,PAYLOAD,2023-10-27 23:26:34,15.08852494,0.0001522,53.2164,181.3701,101.4683,258.648,0.00027515,4.095e-05,0.0,0 STARLINK-4607,1 53740U 22107AS  23300.97679212  .00004095  00000-0  27515-3 0  9993,2 53740  53.2164 181.3701 0001522 101.4683 258.6480 15.08852494 63420,6917.842,95.437,540.76,538.654,0.0
53740.0,STARLINK-4607,PAYLOAD,2023-10-28 08:58:53,15.08842181,0.0001128,53.2163,179.5859,94.7803,265.3318,9.9783e-05,1.301e-05,0.0,0 STARLINK-4607,1 53740U 22107AS  23301.37423586  .00001301  00000-0  99783-4 0  9993,2 53740  53.2163 179.5859 0001128  94.7803 265.3318 15.08842181 63485,6917.874,95.437,540.519,538.958,0.0
53740.0,STARLINK-4607,PAYLOAD,2023-10-28 20:06:36,15.08834636,0.000179,53.2167,177.5053,91.8187,268.301,-6.4166e-05,-1.309e-05,0.0,0 STARLINK-4607,1 53740U 22107AS  23301.83792343 -.00001309  00000-0 -64166-4 0  9991,2 53740  53.2167 177.5053 0001790  91.8187 268.3010 15.08834636 63557,6917.897,95.438,541.0,538.523,0.0
53740.0,STARLINK-4607,PAYLOAD,2023-10-28 21:41:59,15.08833794,0.0001589,53.2164,177.2087,95.3223,264.7951,-5.6583e-05,-1.188e-05,0.0,0 STARLINK-4607,1 53740U 22107AS  23301.90416383 -.00001188  00000-0 -56583-4 0  9995,2 53740  53.2164 177.2087 0001589  95.3223 264.7951 15.08833794 64340,6917.899,95.438,540.864,538.665,0.0
53740.0,STARLINK-4607,PAYLOAD,2023-10-29 08:49:41,15.08840323,0.0001457,53.2156,175.1257,96.4081,263.7077,0.00014421,2.008e-05,0.0,0 STARLINK-4607,1 53740U 22107AS  23302.36784252  .00002008  00000-0  14421-3 0  9993,2 53740  53.2156 175.1257 0001457  96.4081 263.7077 15.08840323 64417,6917.879,95.438,540.752,538.736,0.0
53740.0,STARLINK-4607,PAYLOAD,2023-10-29 21:32:46,15.08858373,0.000138,53.2162,172.7465,97.1215,262.9934,0.00051836,7.975e-05,0.0,0 STARLINK-4607,1 53740U 22107AS  23302.89775632  .00007975  00000-0  51836-3 0  9992,2 53740  53.2162 172.7465 0001380  97.1215 262.9934 15.08858373 63719,6917.824,95.436,540.644,538.735,0.0
53740.0,STARLINK-4607,PAYLOAD,2023-10-30 08:40:28,15.08837089,0.0001815,53.2163,170.6657,90.1726,269.9474,4.017e-05,3.51e-06,0.0,0 STARLINK-4607,1 53740U 22107AS  23303.36144561  .00000351  00000-0  40170-4 0  9997,2 53740  53.2163 170.6657 0001815  90.1726 269.9474 15.08837089 63787,6917.889,95.438,541.01,538.499,0.0
53740.0,STARLINK-4607,PAYLOAD,2023-10-31 08:31:16,15.08841281,0.0001382,53.2152,166.2048,86.0391,274.0759,0.00015899,2.243e-05,0.0,0 STARLINK-4607,1 53740U 22107AS  23304.35504694  .00002243  00000-0  15899-3 0  9995,2 53740  53.2152 166.2048 0001382  86.0391 274.0759 15.08841281 64717,6917.876,95.437,540.698,538.785,0.0
53740.0,STARLINK-4607,PAYLOAD,2023-10-31 21:14:21,15.08852224,0.0001364,53.2155,163.8253,86.0941,274.0208,0.00070838,0.00011008,0.0,0 STARLINK-4607,1 53740U 22107AS  23304.88496539  .00011008  00000-0  70838-3 0  9994,2 53740  53.2155 163.8253 0001364  86.0941 274.0208 15.08852224 64013,6917.843,95.437,540.652,538.764,0.0
53740.0,STARLINK-4607,PAYLOAD,2023-11-01 00:25:07,15.08856914,0.0001364,53.2155,163.2307,84.9904,275.1244,0.00081766,0.00012755,0.0,0 STARLINK-4607,1 53740U 22107AS  23305.01744415  .00012755  00000-0  81766-3 0  9991,2 53740  53.2155 163.2307 0001364  84.9904 275.1244 15.08856914 64813,6917.829,95.436,540.637,538.75,0.0
53740.0,STARLINK-4607,PAYLOAD,2023-11-01 21:05:08,15.08848811,0.0001307,53.2157,159.3649,88.3919,271.7223,0.00045022,6.886e-05,0.0,0 STARLINK-4607,1 53740U 22107AS  23305.87856500  .00006886  00000-0  45022-3 0  9997,2 53740  53.2157 159.3649 0001307  88.3919 271.7223 15.08848811 64165,6917.853,95.437,540.623,538.814,0.0
53740.0,STARLINK-4607,PAYLOAD,2023-11-02 20:55:55,15.08843216,0.0001414,53.2162,154.9057,94.9373,265.1781,0.00027761,4.133e-05,0.0,0 STARLINK-4607,1 53740U 22107AS  23306.87216694  .00004133  00000-0  27761-3 0  9995,2 53740  53.2162 154.9057 0001414  94.9373 265.1781 15.08843216 64318,6917.871,95.437,540.714,538.757,0.0
53740.0,STARLINK-4607,PAYLOAD,2023-11-03 14:25:09,15.08837175,0.0001317,53.2163,151.6337,93.2079,266.9064,7.0616e-05,8.36e-06,0.0,0 STARLINK-4607,1 53740U 22107AS  23307.60080949  .00000836  00000-0  70616-4 0  9993,2 53740  53.2163 151.6337 0001317  93.2079 266.9064 15.08837175 65200,6917.889,95.438,540.665,538.843,0.0
53740.0,STARLINK-4607,PAYLOAD,2023-11-03 20:46:42,15.08842185,0.00013,53.2157,150.4453,91.6553,268.4588,0.00016159,2.285e-05,0.0,0 STARLINK-4607,1 53740U 22107AS  23307.86576797  .00002285  00000-0  16159-3 0  9993,2 53740  53.2157 150.4453 0001300  91.6553 268.4588 15.08842185 64462,6917.874,95.437,540.638,538.839,0.0
